STARLINK-30702          
1 57955U 23148W   26068.24187221 -.00000848  00000+0 -16506-4 0  9991
2 57955  53.1613  16.2915 0000951  79.3427 280.7681 15.30191301138494
2025-313BC              
1 67298U 25313BC  26068.18968176  .00075331  00000+0  26410-2 0  9997
2 67298  97.3985 144.8110 0008478 328.9209  31.1528 15.29126358  7890
